[{
  "_id": {
    "$oid": "624c5021c18edb7b60c66315"
  },
  "owner": {
    "$oid": "624c4f33c18edb7b60c662e3"
  },
  "postcode": "50-250",
  "city": "Wrocław",
  "floor": "1",
  "apartmentNumber": "1",
  "streetNumber": "22",
  "street": "Wyszyńskiego",
  "__v": 0
},{
  "_id": {
    "$oid": "624c5088c18edb7b60c6631d"
  },
  "owner": {
    "$oid": "624c4f3bc18edb7b60c662e8"
  },
  "postcode": "50-210",
  "city": "Wrocław",
  "floor": "3",
  "apartmentNumber": "2",
  "streetNumber": "55",
  "street": "Polaka",
  "__v": 0
},{
  "_id": {
    "$oid": "624c50fac18edb7b60c66324"
  },
  "owner": {
    "$oid": "624c4f40c18edb7b60c662ed"
  },
  "postcode": "02-120",
  "city": "Warszawa",
  "floor": "6",
  "apartmentNumber": "12",
  "streetNumber": "192",
  "street": "Grójecka",
  "__v": 0
},{
  "_id": {
    "$oid": "624c517dc18edb7b60c6632a"
  },
  "owner": {
    "$oid": "624c4f46c18edb7b60c662f2"
  },
  "postcode": "00-453",
  "city": "Warszawa",
  "floor": "1",
  "apartmentNumber": "9",
  "streetNumber": "11",
  "street": "Czerniakowska",
  "__v": 0
},{
  "_id": {
    "$oid": "624c5277c18edb7b60c66331"
  },
  "owner": {
    "$oid": "624c4f7dc18edb7b60c662f7"
  },
  "postcode": "02-115",
  "city": "Warszawa",
  "floor": "1",
  "apartmentNumber": "11",
  "streetNumber": "22",
  "street": "Grójecka",
  "__v": 0
},{
  "_id": {
    "$oid": "624c55c1c18edb7b60c6635b"
  },
  "owner": {
    "$oid": "624c4f91c18edb7b60c662fc"
  },
  "postcode": "52-012",
  "city": "Wrocław",
  "floor": "1",
  "apartmentNumber": "22",
  "streetNumber": "1",
  "street": "Słowiańska",
  "__v": 0
},{
  "_id": {
    "$oid": "624c5870c18edb7b60c6638f"
  },
  "owner": {
    "$oid": "624c4fbec18edb7b60c66301"
  },
  "postcode": "50-012",
  "city": "Wrocław",
  "floor": "1",
  "apartmentNumber": "7",
  "streetNumber": "11",
  "street": "Grunwaldzka",
  "__v": 0
},{
  "_id": {
    "$oid": "624c5ac7c18edb7b60c663c3"
  },
  "owner": {
    "$oid": "624c4fc8c18edb7b60c66306"
  },
  "postcode": "00-213",
  "city": "Warszawa",
  "floor": "0",
  "apartmentNumber": "22",
  "streetNumber": "21",
  "street": "Piękna",
  "__v": 0
}]